satname,norad_id,inclination_deg,eccentricity,mean_motion_rev_per_day,perigee_km,apogee_km,l1,l2
STARLINK-1008,44714,53.1562,0.0002527,15.33550496,463.4999919321317,466.95862926550944,1 44714U 19074B   26093.62603831  .00115041  00000+0  34556-2 0  9996,2 44714  53.1562  62.5849 0002527 107.1805 252.9474 15.33550496352695
STARLINK-1012,44718,53.1598,0.0002935,15.32688064,465.7869288750053,469.80549166943365,1 44718U 19074F   26093.61945465  .00094781  00000+0  29352-2 0  9996,2 44718  53.1598  62.8235 0002935 105.5254 254.6072 15.32688064352687
STARLINK-1017,44723,53.0496,0.0003104,15.26388568,484.48817217967826,488.74981269978616,1 44723U 19074L   26093.18149045  .00061463  00000+0  23251-2 0  9997,2 44723  53.0496  58.2726 0003104 109.8892 250.2441 15.26388568352701
STARLINK-1019,44724,53.0408,0.0002159,15.9031045,299.9713113297539,302.85554120381585,1 44724U 19074M   26093.83335647  .00259529  00000+0  81085-3 0  9997,2 44724  53.0408   9.5399 0002159 213.5226 156.2679 15.90310450  5982
STARLINK-1020,44725,53.1583,0.0002477,15.31857661,468.5737058703926,471.9664067260828,1 44725U 19074N   26093.67590353  .00057745  00000+0  18490-2 0  9992,2 44725  53.1583  87.7007 0002477  93.2650 266.8634 15.31857661352337
STARLINK-1031,44736,53.0317,0.000388,16.11805813,239.32552494241463,244.46266907369318,1 44736U 19074Z   26093.64283586  .00987537  60031-3  91205-3 0  9999,2 44736  53.0317 351.2975 0003880 206.6550 153.4286 16.11805813353688
STARLINK-1036,44741,53.0461,0.0005001,15.61295789,380.5313720336826,387.2947745169722,1 44741U 19074AE  26093.83335647  .00252990  00000+0  28387-2 0  9996,2 44741  53.0461  66.3566 0005001  57.4799  40.9019 15.61295789  5966
STARLINK-1039,44744,53.0595,0.000123,15.23811448,493.51142963571965,495.20206309732566,1 44744U 19074AH  26093.42489764  .00055656  00000+0  22775-2 0  9999,2 44744  53.0595 101.2254 0001230   2.9893 357.1111 15.23811448352123
STARLINK-1042,44747,53.0443,0.0001293,15.51249719,412.19808660659965,413.9542943376555,1 44747U 19074AL  26093.85676304  .00039504  00000+0  66735-3 0  9996,2 44747  53.0443 333.9227 0001293 164.8063 195.2984 15.51249719353978
STARLINK-1043,44748,53.0515,0.0002669,15.55401355,399.17684282338996,402.7955387826405,1 44748U 19074AM  26093.66750601  .00048340  00000+0  70053-3 0  9995,2 44748  53.0515  73.8323 0002669 100.0984 260.0327 15.55401355352531
STARLINK-1046,44751,53.0521,0.0002096,15.4629278,426.15566199770547,429.0086194614996,1 44751U 19074AQ  26093.25799002  .00088326  00000+0  17524-2 0  9993,2 44751  53.0521  93.8710 0002096 303.4014  56.6792 15.46292780352211
STARLINK-1047,44752,53.0712,0.0001875,15.33168251,465.083364204851,467.65005309559456,1 44752U 19074AR  26093.53352591  .00017195  00000+0  53930-3 0  9991,2 44752  53.0712  29.8981 0001875 343.5169  16.5770 15.33168251353159
STARLINK-1048,44753,53.0508,0.0002426,15.58212856,391.1866680205194,394.47194087143635,1 44753U 19074AS  26093.57571860  .00080678  00000+0  10448-2 0  9990,2 44753  53.0508  48.3983 0002426 113.9326 246.1940 15.58212856352874
STARLINK-1063,44768,53.1582,0.0003333,15.32457553,466.20072113146034,470.76467782313193,1 44768U 19074BH  26093.81791421  .00072530  00000+0  22718-2 0  9991,2 44768  53.1582 102.5117 0003333  74.5458 285.5912 15.32457553352166
STARLINK-1067,44771,53.0478,0.0006509,15.62445264,376.19689302813276,384.99541184597456,1 44771U 19074BL  26093.83335647  .00257440  00000+0  27604-2 0  9995,2 44771  53.0478  81.7658 0006509  66.7409  42.2457 15.62445264  5816
STARLINK-1068,44772,53.0466,0.0004476,15.67333095,363.51822103281665,369.55605332041705,1 44772U 19074BM  26093.83761471  .00101565  00000+0  91765-3 0  9990,2 44772  53.0466  56.3514 0004476  39.9014 320.2329 15.67333095352789
STARLINK-1114,44927,53.0467,0.0004473,15.54917497,399.3595351827562,405.4253968430521,1 44927U 20001P   26093.83335647  .00181546  00000+0  26138-2 0  9994,2 44927  53.0467 208.2623 0004473 240.3457  25.5229 15.54917497  5843
STARLINK-1123,44930,53.1488,0.0002286,15.3032843,473.2650387792737,476.39821603572545,1 44930U 20001S   26093.60304967  .00041251  00000+0  13916-2 0  9992,2 44930  53.1488 229.5308 0002286  24.2809 335.8299 15.30328430343685
STARLINK-1094,44941,53.1597,8.94e-05,15.31924273,469.4593008039219,470.68376048920163,1 44941U 20001AD  26093.69143961  .00042195  00000+0  13543-2 0  9992,2 44941  53.1597 203.3460 0000894 352.9241   7.1747 15.31924273344069
STARLINK-1122,44949,53.1587,0.0001182,15.30220693,474.3432256358956,475.9633434591615,1 44949U 20001AM  26093.72536104  .00008000  00000+0  28175-3 0  9994,2 44949  53.1587 203.3196 0001182  89.8074 270.3062 15.30220693344061
STARLINK-1080,44961,53.0501,0.0001346,15.51610104,411.11061911011984,412.93853060607125,1 44961U 20001AZ  26093.51573409  .00104117  00000+0  17099-2 0  9992,2 44961  53.0501 169.1891 0001346 239.2446 120.8430 15.51610104344529
STARLINK-1090,44968,53.1547,0.0002404,15.30746676,471.93612566581305,475.2304327760621,1 44968U 20001BG  26093.56783787  .00054150  00000+0  17964-2 0  9998,2 44968  53.1547 190.9468 0002404  29.4146 330.6990 15.30746676344221
STARLINK-1132,45044,53.1546,0.0004444,15.46569168,423.74718012765425,429.7953826081339,1 45044U 20006A   26093.50083561  .00071169  00000+0  14032-2 0  9998,2 45044  53.1546 136.1178 0004444 340.1331  19.9504 15.46569168340760
STARLINK-1131,45047,53.1579,0.0001682,15.30870358,472.0618344170716,474.3666289714138,1 45047U 20006D   26093.48429933  .00066360  00000+0  21869-2 0  9998,2 45047  53.1579 165.7954 0001682  70.7081 289.4102 15.30870358340349
STARLINK-1134,45048,53.0304,0.0004906,15.46633791,423.243332050969,429.9201220659588,1 45048U 20006E   26093.39683003  .00075691  00000+0  14874-2 0  9994,2 45048  53.0304 120.5394 0004906 284.9583  75.0880 15.46633791340965
STARLINK-1156,45054,53.1599,0.0001409,15.30214768,474.20534409419906,476.1366062816078,1 45054U 20006L   26093.57723360  .00006689  00000+0  23766-3 0  9994,2 45054  53.1599 165.3934 0001409  85.8783 274.2379 15.30214768340352
STARLINK-1159,45057,53.0394,0.0003588,15.9155571,295.5334708226628,300.324215671777,1 45057U 20006P   26093.83335647  .00332959  52817-4  10120-2 0  9992,2 45057  53.0394 107.4258 0003588  50.8320 308.8461 15.91555710  6045
STARLINK-1166,45060,53.0493,0.0002532,15.49371428,416.8427809682744,420.2846302055823,1 45060U 20006S   26093.63864566  .00096297  00000+0  17142-2 0  9996,2 45060  53.0493 153.4608 0002532 334.5534  25.5349 15.49371428340523
STARLINK-1169,45061,53.1578,0.0002679,15.31916182,468.26100219272485,471.93028524322926,1 45061U 20006T   26093.60128383  .00035782  00000+0  11515-2 0  9994,2 45061  53.1578 165.1852 0002679  35.0414 325.0763 15.31916182340365
STARLINK-1171,45062,53.0431,0.0004526,15.66653663,365.43351058906956,371.5405546634029,1 45062U 20006U   26093.48734597  .00076478  00000+0  71367-3 0  9990,2 45062  53.0431 127.7367 0004526  45.7109 314.4276 15.66653663340877
STARLINK-1133,45064,53.1589,0.0001529,15.30221229,474.1038163448684,476.19955202449273,1 45064U 20006W   26093.41972518  .00003063  00000+0  11545-3 0  9994,2 45064  53.1589 142.9316 0001529  96.3603 263.7572 15.30221229340660
STARLINK-1167,45071,53.1599,0.0003489,15.31389215,469.2766893419612,474.05648228414157,1 45071U 20006AD  26093.44772368  .00075445  00000+0  24417-2 0  9990,2 45071  53.1599 142.8544 0003489  44.7072 315.4211 15.31389215340661
STARLINK-1168,45072,53.1603,0.0001218,15.30211184,474.34694199987825,476.01641042940446,1 45072U 20006AE  26093.40080252  .00006773  00000+0  24051-3 0  9994,2 45072  53.1603 143.2275 0001218  76.7248 283.3888 15.30211184340652
STARLINK-1172,45074,53.1562,0.0002822,15.32403155,466.7125664946443,470.5768901020956,1 45074U 20006AG  26093.44643234  .00049961  00000+0  15759-2 0  9995,2 45074  53.1562 142.6576 0002822  41.9599 318.1618 15.32403155340662
STARLINK-1153,45080,53.157,0.0003156,15.31422983,469.4041267298271,473.7276591958653,1 45080U 20006AN  26093.43177387  .00048194  00000+0  15681-2 0  9993,2 45080  53.1570 142.8453 0003156  44.6058 315.5197 15.31422983340667
STARLINK-1151,45081,53.0502,0.0004496,15.68727126,359.5102192455897,365.57143674852614,1 45081U 20006AP  26093.44650873  .00087483  00000+0  74869-3 0  9999,2 45081  53.0502 117.9433 0004496  53.9755 306.1677 15.68727126341003
STARLINK-1185,45087,53.1612,0.0001514,15.389622,448.1432740953287,450.2105847531593,1 45087U 20006AV  26093.32668012  .00021774  00000+0  56477-3 0  9992,2 45087  53.1612 127.1518 0001514  77.9067 282.2107 15.38962200340876
STARLINK-1183,45088,53.1574,0.0001197,15.30208704,474.368737835528,476.0094240993112,1 45088U 20006AW  26093.37647737  .00006927  00000+0  24573-3 0  9994,2 45088  53.1574 127.9115 0001197  75.5687 284.5446 15.30208704340868
STARLINK-1152,45096,53.038,0.000325,15.41690273,438.90418518064416,443.33670251914555,1 45096U 20006BE  26093.71209720  .00099413  00000+0  22997-2 0  9996,2 45096  53.0380  88.1678 0003250 359.7697   0.3305 15.41690273341444
STARLINK-1184,45098,53.0517,0.0002252,15.11516467,530.0185071072028,533.1306412002014,1 45098U 20006BG  26093.53860466  .00027388  00000+0  16094-2 0  9991,2 45098  53.0517 133.0898 0002252 207.4786 152.6087 15.11516467340795
STARLINK-1193,45100,53.0494,0.0006148,15.59535346,384.8404622498874,393.1613350100424,1 45100U 20006BJ  26093.34730976  .00055887  00000+0  69209-3 0  9998,2 45100  53.0494 110.6845 0006148  50.6366 309.5190 15.59535346341097
STARLINK-1143,45179,53.0449,0.0004425,15.69899694,356.20270893225097,362.165237993765,1 45179U 20012B   26093.83335647  .00116951  00000+0  94868-3 0  9990,2 45179  53.0449 206.3207 0004425 247.0131  83.0347 15.69899694  5989
STARLINK-1202,45183,53.1574,0.000135,15.30212703,474.2519434044334,476.1023382224521,1 45183U 20012F   26093.76937428  .00005535  00000+0  19880-3 0  9998,2 45183  53.1574 282.7580 0001350  83.3611 276.7544 15.30212703338790
